MALLIGYONG-1            
1 58400U 23179A   24170.16863697  .00005885  00000+0  26781-3 0  9991
2 58400  97.4046  57.0023 0002543 142.3007 217.8408 15.21083818 31873
